*******************************************************************************
Ephemeris / WWW_USER Mon Mar 24 06:40:05 2025 Pasadena, USA      / Horizons    
*******************************************************************************
Target body name: (2018 RD5)                      {source: JPL#11}
Center body name: Earth (399)                     {source: DE441}
Center-site name: Gemini South Obs., Cerro Pachon
*******************************************************************************
Start time      : A.D. 2018-Sep-07 22:39:00.0000 UT      
Stop  time      : A.D. 2018-Sep-08 10:41:00.0000 UT      
Step-size       : 1 minutes
*******************************************************************************
Target pole/equ : undefined
Target radii    : undefined                                                    
Center geodetic : 289.2634, -30.2406227, 2.71233  {E-lon(deg),Lat(deg),Alt(km)}
Center cylindric: 289.2634,5517.21435,-3194.81213 {E-lon(deg),Dxy(km),Dz(km)}
Center pole/equ : ITRF93                          {East-longitude positive}
Center radii    : 6378.137, 6378.137, 6356.752 km {Equator_a, b, pole_c}       
Target primary  : Sun
Vis. interferer : MOON (R_eq= 1737.400) km        {source: DE441}
Rel. light bend : Sun                             {source: DE441}
Rel. lght bnd GM: 1.3271E+11 km^3/s^2                                          
Small-body perts: Yes                             {source: SB441-N16}
Atmos refraction: NO (AIRLESS)
RA format       : HMS
Time format     : CAL 
Calendar mode   : Mixed Julian/Gregorian
RTS-only print  : NO       
EOP file        : eop.250321.p250617                                           
EOP coverage    : DATA-BASED 1962-JAN-20 TO 2025-MAR-21. PREDICTS-> 2025-JUN-16
Units conversion: 1 au= 149597870.700 km, c= 299792.458 km/s, 1 day= 86400.0 s 
Table cut-offs 1: Elevation (-90.0deg=NO ),Airmass (>38.000=NO), Daylight (YES)
Table cut-offs 2: Solar elongation (  0.0,180.0=NO ),Local Hour Angle( 0.0=NO )
Table cut-offs 3: RA/DEC angular rate (     0.0=NO )                           
*******************************************************************************
Initial IAU76/J2000 heliocentric ecliptic osculating elements (au, days, deg.):
  EPOCH=  2458378.5 ! 2018-Sep-17.00 (TDB)         Residual RMS= .55339        
   EC= .2891632988519429   QR= 1.009650912138325   TP= 2458360.6433297051      
   OM= 171.0145363394364   W=  163.7983400129293   IN= 8.474307805886117       
  Equivalent ICRF heliocentric cartesian coordinates (au, au/d):
   X= 1.017757009008053E+00  Y=-8.967367621791844E-02  Z=-4.840656937149759E-02
  VX= 3.309922676318766E-03 VY= 1.832358809606965E-02 VZ= 4.854018792897502E-03
Asteroid physical parameters (km, seconds, rotational period in hours):        
   GM= n.a.                RAD= n.a.               ROTPER= n.a.                
   H= 25.9                 G= .150                 B-V= n.a.                   
                           ALBEDO= n.a.            STYP= n.a.                  
*******************************************************************************
 Date__(UT)__HR:MN     R.A._________(ICRF)_________DEC
******************************************************
$$SOE
 2018-Sep-08 06:51     18 54 44.290674 +39 04 26.51843
 2018-Sep-08 06:52     18 54 45.858462 +39 04 24.68324
 2018-Sep-08 06:53     18 54 47.427242 +39 04 22.84682
 2018-Sep-08 06:54     18 54 48.997013 +39 04 21.00919
 2018-Sep-08 06:55     18 54 50.567776 +39 04 19.17038
 2018-Sep-08 06:56     18 54 52.139530 +39 04 17.33039
 2018-Sep-08 06:57     18 54 53.712276 +39 04 15.48926
 2018-Sep-08 06:58     18 54 55.286013 +39 04 13.64700
 2018-Sep-08 06:59     18 54 56.860742 +39 04 11.80363
 2018-Sep-08 07:00     18 54 58.436462 +39 04 09.95917
 2018-Sep-08 07:01     18 55 00.013173 +39 04 08.11364
 2018-Sep-08 07:02     18 55 01.590875 +39 04 06.26706
 2018-Sep-08 07:03     18 55 03.169568 +39 04 04.41945
 2018-Sep-08 07:04     18 55 04.749252 +39 04 02.57082
 2018-Sep-08 07:05     18 55 06.329927 +39 04 00.72121
 2018-Sep-08 07:06     18 55 07.911591 +39 03 58.87061
 2018-Sep-08 07:07     18 55 09.494246 +39 03 57.01907
 2018-Sep-08 07:08     18 55 11.077891 +39 03 55.16659
 2018-Sep-08 07:09     18 55 12.662526 +39 03 53.31320
 2018-Sep-08 07:10     18 55 14.248151 +39 03 51.45891
 2018-Sep-08 07:11     18 55 15.834765 +39 03 49.60375
 2018-Sep-08 07:12     18 55 17.422368 +39 03 47.74773
 2018-Sep-08 07:13     18 55 19.010959 +39 03 45.89088
 2018-Sep-08 07:14     18 55 20.600540 +39 03 44.03320
 2018-Sep-08 07:15     18 55 22.191109 +39 03 42.17473
 2018-Sep-08 07:16     18 55 23.782665 +39 03 40.31548
 2018-Sep-08 07:17     18 55 25.375210 +39 03 38.45547
 2018-Sep-08 07:18     18 55 26.968742 +39 03 36.59472
 2018-Sep-08 07:19     18 55 28.563261 +39 03 34.73325
 2018-Sep-08 07:20     18 55 30.158767 +39 03 32.87108
 2018-Sep-08 07:21     18 55 31.755259 +39 03 31.00823
 2018-Sep-08 07:22     18 55 33.352737 +39 03 29.14472
 2018-Sep-08 07:23     18 55 34.951201 +39 03 27.28056
 2018-Sep-08 07:24     18 55 36.550651 +39 03 25.41578
 2018-Sep-08 07:25     18 55 38.151085 +39 03 23.55039
 2018-Sep-08 07:26     18 55 39.752504 +39 03 21.68442
 2018-Sep-08 07:27     18 55 41.354906 +39 03 19.81788
 2018-Sep-08 07:28     18 55 42.958293 +39 03 17.95079
 2018-Sep-08 07:29     18 55 44.562662 +39 03 16.08318
 2018-Sep-08 07:30     18 55 46.168015 +39 03 14.21506
 2018-Sep-08 07:31     18 55 47.774349 +39 03 12.34645
 2018-Sep-08 07:32     18 55 49.381666 +39 03 10.47737
 2018-Sep-08 07:33     18 55 50.989964 +39 03 08.60784
 2018-Sep-08 07:34     18 55 52.599242 +39 03 06.73788
 2018-Sep-08 07:35     18 55 54.209501 +39 03 04.86751
 2018-Sep-08 07:36     18 55 55.820740 +39 03 02.99674
 2018-Sep-08 07:37     18 55 57.432958 +39 03 01.12559
 2018-Sep-08 07:38     18 55 59.046154 +39 02 59.25410
 2018-Sep-08 07:39     18 56 00.660329 +39 02 57.38226
 2018-Sep-08 07:40     18 56 02.275481 +39 02 55.51011
 2018-Sep-08 07:41     18 56 03.891611 +39 02 53.63766
 2018-Sep-08 07:42     18 56 05.508716 +39 02 51.76493
 2018-Sep-08 07:43     18 56 07.126798 +39 02 49.89194
 2018-Sep-08 07:44     18 56 08.745854 +39 02 48.01871
 2018-Sep-08 07:45     18 56 10.365886 +39 02 46.14526
 2018-Sep-08 07:46     18 56 11.986891 +39 02 44.27160
 2018-Sep-08 07:47     18 56 13.608869 +39 02 42.39776
 2018-Sep-08 07:48     18 56 15.231820 +39 02 40.52376
 2018-Sep-08 07:49     18 56 16.855743 +39 02 38.64960
 2018-Sep-08 07:50     18 56 18.480637 +39 02 36.77532
 2018-Sep-08 07:51     18 56 20.106502 +39 02 34.90093
 2018-Sep-08 07:52     18 56 21.733336 +39 02 33.02645
 2018-Sep-08 07:53     18 56 23.361140 +39 02 31.15189
 2018-Sep-08 07:54     18 56 24.989912 +39 02 29.27729
 2018-Sep-08 07:55     18 56 26.619651 +39 02 27.40265
 2018-Sep-08 07:56     18 56 28.250358 +39 02 25.52799
 2018-Sep-08 07:57     18 56 29.882030 +39 02 23.65334
 2018-Sep-08 07:58     18 56 31.514668 +39 02 21.77871
 2018-Sep-08 07:59     18 56 33.148270 +39 02 19.90411
 2018-Sep-08 08:00     18 56 34.782837 +39 02 18.02958
 2018-Sep-08 08:01     18 56 36.418366 +39 02 16.15513
 2018-Sep-08 08:02     18 56 38.054857 +39 02 14.28077
 2018-Sep-08 08:03     18 56 39.692310 +39 02 12.40652
 2018-Sep-08 08:04     18 56 41.330722 +39 02 10.53241
 2018-Sep-08 08:05     18 56 42.970095 +39 02 08.65844
 2018-Sep-08 08:06     18 56 44.610426 +39 02 06.78465
 2018-Sep-08 08:07     18 56 46.251715 +39 02 04.91105
 2018-Sep-08 08:08     18 56 47.893961 +39 02 03.03765
 2018-Sep-08 08:09     18 56 49.537163 +39 02 01.16448
 2018-Sep-08 08:10     18 56 51.181321 +39 01 59.29155
 2018-Sep-08 08:11     18 56 52.826432 +39 01 57.41888
 2018-Sep-08 08:12     18 56 54.472497 +39 01 55.54649
 2018-Sep-08 08:13     18 56 56.119514 +39 01 53.67439
 2018-Sep-08 08:14     18 56 57.767482 +39 01 51.80261
 2018-Sep-08 08:15     18 56 59.416401 +39 01 49.93117
 2018-Sep-08 08:16     18 57 01.066269 +39 01 48.06008
 2018-Sep-08 08:17     18 57 02.717086 +39 01 46.18936
 2018-Sep-08 08:18     18 57 04.368850 +39 01 44.31902
 2018-Sep-08 08:19     18 57 06.021560 +39 01 42.44910
 2018-Sep-08 08:20     18 57 07.675216 +39 01 40.57959
 2018-Sep-08 08:21     18 57 09.329817 +39 01 38.71053
 2018-Sep-08 08:22     18 57 10.985360 +39 01 36.84193
 2018-Sep-08 08:23     18 57 12.641846 +39 01 34.97380
 2018-Sep-08 08:24     18 57 14.299273 +39 01 33.10618
 2018-Sep-08 08:25     18 57 15.957640 +39 01 31.23906
 2018-Sep-08 08:26     18 57 17.616947 +39 01 29.37247
 2018-Sep-08 08:27     18 57 19.277191 +39 01 27.50644
 2018-Sep-08 08:28     18 57 20.938372 +39 01 25.64097
 2018-Sep-08 08:29     18 57 22.600489 +39 01 23.77608
 2018-Sep-08 08:30     18 57 24.263540 +39 01 21.91180
 2018-Sep-08 08:31     18 57 25.927525 +39 01 20.04813
 2018-Sep-08 08:32     18 57 27.592442 +39 01 18.18511
 2018-Sep-08 08:33     18 57 29.258290 +39 01 16.32273
 2018-Sep-08 08:34     18 57 30.925068 +39 01 14.46103
 2018-Sep-08 08:35     18 57 32.592775 +39 01 12.60002
 2018-Sep-08 08:36     18 57 34.261409 +39 01 10.73971
 2018-Sep-08 08:37     18 57 35.930970 +39 01 08.88013
 2018-Sep-08 08:38     18 57 37.601456 +39 01 07.02128
 2018-Sep-08 08:39     18 57 39.272866 +39 01 05.16320
 2018-Sep-08 08:40     18 57 40.945199 +39 01 03.30589
 2018-Sep-08 08:41     18 57 42.618453 +39 01 01.44938
 2018-Sep-08 08:42     18 57 44.292627 +39 00 59.59367
 2018-Sep-08 08:43     18 57 45.967720 +39 00 57.73879
 2018-Sep-08 08:44     18 57 47.643730 +39 00 55.88476
 2018-Sep-08 08:45     18 57 49.320657 +39 00 54.03159
 2018-Sep-08 08:46     18 57 50.998499 +39 00 52.17929
 2018-Sep-08 08:47     18 57 52.677255 +39 00 50.32789
 2018-Sep-08 08:48     18 57 54.356923 +39 00 48.47740
 2018-Sep-08 08:49     18 57 56.037502 +39 00 46.62784
 2018-Sep-08 08:50     18 57 57.718991 +39 00 44.77923
 2018-Sep-08 08:51     18 57 59.401389 +39 00 42.93158
 2018-Sep-08 08:52     18 58 01.084693 +39 00 41.08491
 2018-Sep-08 08:53     18 58 02.768903 +39 00 39.23923
